[
    {
        "Altitude(m)": 704394.564733875,
        "Argument of Periapsis(deg)": 0.007973084830638947,
        "Eccentricity": 0.0,
        "Inclination(deg)": 45.0,
        "Latitude(deg)": -5.940072533109953,
        "Longitude(deg)": -176.47255133547782,
        "Mean Anomaly(deg)": -8.290348346763455,
        "RAAN(deg)": 289.99247364097926,
        "Satellite Name": "Constellation 1 1297",
        "Satellite Number": 1297,
        "Semi-Major Axis(m)": 7083131.272910544,
        "Time(s)": 133
    },
    {
        "Altitude(m)": 704386.2245324496,
        "Argument of Periapsis(deg)": 0.008033032836884352,
        "Eccentricity": 0.0,
        "Inclination(deg)": 45.0,
        "Latitude(deg)": -5.897102199678822,
        "Longitude(deg)": -176.4333555452145,
        "Mean Anomaly(deg)": -8.229647206513517,
        "RAAN(deg)": 289.99241705181373,
        "Satellite Name": "Constellation 1 1297",
        "Satellite Number": 1297,
        "Semi-Major Axis(m)": 7083131.272910544,
        "Time(s)": 134
    },
    {
        "Altitude(m)": 704377.9032461324,
        "Argument of Periapsis(deg)": 0.008092980843129758,
        "Eccentricity": 0.0,
        "Inclination(deg)": 45.0,
        "Latitude(deg)": -5.854128352308198,
        "Longitude(deg)": -176.39416633232605,
        "Mean Anomaly(deg)": -8.168946066263683,
        "RAAN(deg)": 289.99236046264815,
        "Satellite Name": "Constellation 1 1297",
        "Satellite Number": 1297,
        "Semi-Major Axis(m)": 7083131.272910544,
        "Time(s)": 135
    },
    {
        "Altitude(m)": 704369.6008938272,
        "Argument of Periapsis(deg)": 0.008152928849375162,
        "Eccentricity": 0.0,
        "Inclination(deg)": 45.0,
        "Latitude(deg)": -5.811151016737974,
        "Longitude(deg)": -176.35498364757441,
        "Mean Anomaly(deg)": -8.108244926013745,
        "RAAN(deg)": 289.9923038734825,
        "Satellite Name": "Constellation 1 1297",
        "Satellite Number": 1297,
        "Semi-Major Axis(m)": 7083131.272910544,
        "Time(s)": 136
    },
    {
        "Altitude(m)": 704361.31749434,
        "Argument of Periapsis(deg)": 0.008212876855620568,
        "Eccentricity": 0.0,
        "Inclination(deg)": 45.0,
        "Latitude(deg)": -5.768170218695992,
        "Longitude(deg)": -176.3158074417355,
        "Mean Anomaly(deg)": -8.047543785763807,
        "RAAN(deg)": 289.992247284317,
        "Satellite Name": "Constellation 1 1297",
        "Satellite Number": 1297,
        "Semi-Major Axis(m)": 7083131.272910544,
        "Time(s)": 137
    },
    {
        "Altitude(m)": 704353.0530663864,
        "Argument of Periapsis(deg)": 0.008272824861865974,
        "Eccentricity": 0.0,
        "Inclination(deg)": 45.0,
        "Latitude(deg)": -5.725185983898167,
        "Longitude(deg)": -176.2766376655994,
        "Mean Anomaly(deg)": -7.986842645513971,
        "RAAN(deg)": 289.9921906951514,
        "Satellite Name": "Constellation 1 1297",
        "Satellite Number": 1297,
        "Semi-Major Axis(m)": 7083131.272910544,
        "Time(s)": 138
    },
    {
        "Altitude(m)": 704344.8076285977,
        "Argument of Periapsis(deg)": 0.00833277286811138,
        "Eccentricity": 0.0,
        "Inclination(deg)": 45.0,
        "Latitude(deg)": -5.682198338048259,
        "Longitude(deg)": -176.2374742699696,
        "Mean Anomaly(deg)": -7.926141505264085,
        "RAAN(deg)": 289.9921341059859,
        "Satellite Name": "Constellation 1 1297",
        "Satellite Number": 1297,
        "Semi-Major Axis(m)": 7083131.272910544,
        "Time(s)": 139
    },
    {
        "Altitude(m)": 704336.5811995211,
        "Argument of Periapsis(deg)": 0.008392720874356788,
        "Eccentricity": 0.0,
        "Inclination(deg)": 45.0,
        "Latitude(deg)": -5.639207306838185,
        "Longitude(deg)": -176.19831720566327,
        "Mean Anomaly(deg)": -7.865440365014147,
        "RAAN(deg)": 289.9920775168203,
        "Satellite Name": "Constellation 1 1297",
        "Satellite Number": 1297,
        "Semi-Major Axis(m)": 7083131.272910544,
        "Time(s)": 140
    },
    {
        "Altitude(m)": 704328.3737976099,
        "Argument of Periapsis(deg)": 0.008452668880602192,
        "Eccentricity": 0.0,
        "Inclination(deg)": 45.0,
        "Latitude(deg)": -5.596212915947914,
        "Longitude(deg)": -176.1591665916083,
        "Mean Anomaly(deg)": -7.8047392247642104,
        "RAAN(deg)": 289.9920209276548,
        "Satellite Name": "Constellation 1 1297",
        "Satellite Number": 1297,
        "Semi-Major Axis(m)": 7083131.272910544,
        "Time(s)": 141
    },
    {
        "Altitude(m)": 704320.185441227,
        "Argument of Periapsis(deg)": 0.008512616886847598,
        "Eccentricity": 0.0,
        "Inclination(deg)": 45.0,
        "Latitude(deg)": -5.5532151910467125,
        "Longitude(deg)": -176.120022042455,
        "Mean Anomaly(deg)": -7.744038084514426,
        "RAAN(deg)": 289.99196433848914,
        "Satellite Name": "Constellation 1 1297",
        "Satellite Number": 1297,
        "Semi-Major Axis(m)": 7083131.272910544,
        "Time(s)": 142
    },
    {
        "Altitude(m)": 704312.0161486447,
        "Argument of Periapsis(deg)": 0.008572564893093004,
        "Eccentricity": 0.0,
        "Inclination(deg)": 45.0,
        "Latitude(deg)": -5.510214157791014,
        "Longitude(deg)": -176.08088367715766,
        "Mean Anomaly(deg)": -7.683336944264438,
        "RAAN(deg)": 289.99190774932356,
        "Satellite Name": "Constellation 1 1297",
        "Satellite Number": 1297,
        "Semi-Major Axis(m)": 7083131.272910544,
        "Time(s)": 143
    },
    {
        "Altitude(m)": 704303.8659380559,
        "Argument of Periapsis(deg)": 0.008632512899338408,
        "Eccentricity": 0.0,
        "Inclination(deg)": 45.0,
        "Latitude(deg)": -5.467209841826393,
        "Longitude(deg)": -176.0417514465872,
        "Mean Anomaly(deg)": -7.6226358040145,
        "RAAN(deg)": 289.99185116015803,
        "Satellite Name": "Constellation 1 1297",
        "Satellite Number": 1297,
        "Semi-Major Axis(m)": 7083131.272910544,
        "Time(s)": 144
    },
    {
        "Altitude(m)": 704295.7348275514,
        "Argument of Periapsis(deg)": 0.008692460905583814,
        "Eccentricity": 0.0,
        "Inclination(deg)": 45.0,
        "Latitude(deg)": -5.424202268787003,
        "Longitude(deg)": -176.00262530162757,
        "Mean Anomaly(deg)": -7.561934663764665,
        "RAAN(deg)": 289.99179457099245,
        "Satellite Name": "Constellation 1 1297",
        "Satellite Number": 1297,
        "Semi-Major Axis(m)": 7083131.272910544,
        "Time(s)": 145
    },
    {
        "Altitude(m)": 704287.622835145,
        "Argument of Periapsis(deg)": 0.00875240891182922,
        "Eccentricity": 0.0,
        "Inclination(deg)": 45.0,
        "Latitude(deg)": -5.381191464295539,
        "Longitude(deg)": -175.96350519317568,
        "Mean Anomaly(deg)": -7.501233523514778,
        "RAAN(deg)": 289.99173798182693,
        "Satellite Name": "Constellation 1 1297",
        "Satellite Number": 1297,
        "Semi-Major Axis(m)": 7083131.272910544,
        "Time(s)": 146
    },
    {
        "Altitude(m)": 704279.5299787613,
        "Argument of Periapsis(deg)": 0.008812356918074627,
        "Eccentricity": 0.0,
        "Inclination(deg)": 45.0,
        "Latitude(deg)": -5.338177453963539,
        "Longitude(deg)": -175.9243910721415,
        "Mean Anomaly(deg)": -7.440532383264892,
        "RAAN(deg)": 289.9916813926613,
        "Satellite Name": "Constellation 1 1297",
        "Satellite Number": 1297,
        "Semi-Major Axis(m)": 7083131.272910544,
        "Time(s)": 147
    },
    {
        "Altitude(m)": 704271.4562762189,
        "Argument of Periapsis(deg)": 0.008872304924320031,
        "Eccentricity": 0.0,
        "Inclination(deg)": 45.0,
        "Latitude(deg)": -5.2951602633911605,
        "Longitude(deg)": -175.8852830575447,
        "Mean Anomaly(deg)": -7.379831243014954,
        "RAAN(deg)": 289.9916248034957,
        "Satellite Name": "Constellation 1 1297",
        "Satellite Number": 1297,
        "Semi-Major Axis(m)": 7083131.272910544,
        "Time(s)": 148
    },
    {
        "Altitude(m)": 704263.4017452693,
        "Argument of Periapsis(deg)": 0.008932252930565437,
        "Eccentricity": 0.0,
        "Inclination(deg)": 45.0,
        "Latitude(deg)": -5.252139918168556,
        "Longitude(deg)": -175.8461807641267,
        "Mean Anomaly(deg)": -7.319130102765119,
        "RAAN(deg)": 289.9915682143302,
        "Satellite Name": "Constellation 1 1297",
        "Satellite Number": 1297,
        "Semi-Major Axis(m)": 7083131.272910544,
        "Time(s)": 149
    },
    {
        "Altitude(m)": 704255.3664035562,
        "Argument of Periapsis(deg)": 0.008992200936810843,
        "Eccentricity": 0.0,
        "Inclination(deg)": 45.0,
        "Latitude(deg)": -5.209116443873798,
        "Longitude(deg)": -175.80708431093265,
        "Mean Anomaly(deg)": -7.25842896251513,
        "RAAN(deg)": 289.9915116251646,
        "Satellite Name": "Constellation 1 1297",
        "Satellite Number": 1297,
        "Semi-Major Axis(m)": 7083131.272910544,
        "Time(s)": 150
    },
    {
        "Altitude(m)": 704247.3502686498,
        "Argument of Periapsis(deg)": 0.009052148943056249,
        "Eccentricity": 0.0,
        "Inclination(deg)": 45.0,
        "Latitude(deg)": -5.166089866074708,
        "Longitude(deg)": -175.76799364892312,
        "Mean Anomaly(deg)": -7.197727822265295,
        "RAAN(deg)": 289.9914550359991,
        "Satellite Name": "Constellation 1 1297",
        "Satellite Number": 1297,
        "Semi-Major Axis(m)": 7083131.272910544,
        "Time(s)": 151
    }
]